[{"OBJECT_NAME":"STARLINK-2330","OBJECT_ID":"2021-021Q","EPOCH":"2026-03-10T00:00:02.999808","MEAN_MOTION":15.18160337,"ECCENTRICITY":0.00015757,"INCLINATION":53.1049,"RA_OF_ASC_NODE":214.8621,"ARG_OF_PERICENTER":60.7022,"MEAN_ANOMALY":1.7826,"EPHEMERIS_TYPE":0,"CLASSIFICATION_TYPE":"U","NORAD_CAT_ID":47874,"ELEMENT_SET_NO":999,"REV_AT_EPOCH":579,"BSTAR":0.042995602,"MEAN_MOTION_DOT":0.0096506,"MEAN_MOTION_DDOT":0},{"OBJECT_NAME":"TITAN 3C TRANSTAGE DEB","OBJECT_ID":"1965-108AH","EPOCH":"2026-03-08T17:48:02.724480","MEAN_MOTION":5.86598029,"ECCENTRICITY":0.47540309,"INCLINATION":27.254,"RA_OF_ASC_NODE":316.1669,"ARG_OF_PERICENTER":20.2025,"MEAN_ANOMALY":353.6228,"EPHEMERIS_TYPE":0,"CLASSIFICATION_TYPE":"U","NORAD_CAT_ID":26049,"ELEMENT_SET_NO":999,"REV_AT_EPOCH":10429,"BSTAR":0.016703702,"MEAN_MOTION_DOT":0.00021794,"MEAN_MOTION_DDOT":0}]
